{"type": "FeatureCollection", "features": [ {"type": "Feature", "properties": {"norad_id": 66757, "name": "TRANSPORTER-15CV", "group": "last-30-days", "lat": 37.77680183989548, "lon": 64.18193763236566, "alt_km": 509.4297051016165, "timestamp": "2025-12-24T09:46:29.715325+00:00", "meta": {"OBJECT_NAME": "TRANSPORTER-15CV", "OBJECT_ID": "2025-276CV", "EPOCH": "2025-12-24T03:16:46.526304", "MEAN_MOTION": 15.18086854, "ECCENTRICITY": 0.000193, "INCLINATION": 97.4421, "RA_OF_ASC_NODE": 69.7303, "ARG_OF_PERICENTER": 152.3902, "MEAN_ANOMALY": 207.7435, "EPHEMERIS_TYPE": 0, "CLASSIFICATION_TYPE": "U", "NORAD_CAT_ID": 66757, "ELEMENT_SET_NO": 999, "REV_AT_EPOCH": 385, "BSTAR": 0.00075599, "MEAN_MOTION_DOT": 0.00015363, "MEAN_MOTION_DDOT": 0}, "tle": {"line1": "1 66757U 25276CV  25358.13664961  .00015363  00000+0  75599-3 0  9997", "line2": "2 66757  97.4421  69.7303 0001930 152.3902 207.7435 15.18086854  3853"}}, "geometry": {"type": "Point", "coordinates": [64.18193763236566, 37.77680183989548]}}, {"type": "Feature", "properties": {"norad_id": 66758, "name": "TRANSPORTER-15CW", "group": "last-30-days", "lat": 39.27883153644648, "lon": 63.851834219521, "alt_km": 508.7804022028504, "timestamp": "2025-12-24T09:46:29.715339+00:00", "meta": {"OBJECT_NAME": "TRANSPORTER-15CW", "OBJECT_ID": "2025-276CW", "EPOCH": "2025-12-24T03:16:22.519200", "MEAN_MOTION": 15.18087129, "ECCENTRICITY": 0.0001447, "INCLINATION": 97.4393, "RA_OF_ASC_NODE": 69.7203, "ARG_OF_PERICENTER": 136.3832, "MEAN_ANOMALY": 223.7516, "EPHEMERIS_TYPE": 0, "CLASSIFICATION_TYPE": "U", "NORAD_CAT_ID": 66758, "ELEMENT_SET_NO": 999, "REV_AT_EPOCH": 385, "BSTAR": 0.0003724, "MEAN_MOTION_DOT": 7.526e-05, "MEAN_MOTION_DDOT": 0}, "tle": {"line1": "1 66758U 25276CW  25358.13637175  .00007526  00000+0  37240-3 0  9998", "line2": "2 66758  97.4393  69.7203 0001447 136.3832 223.7516 15.18087129  3852"}}, "geometry": {"type": "Point", "coordinates": [63.851834219521, 39.27883153644648]}}, {"type": "Feature", "properties": {"norad_id": 66759, "name": "TRANSPORTER-15CX", "group": "last-30-days", "lat": 48.88902965416683, "lon": 61.37694870170834, "alt_km": 506.7203228069566, "timestamp": "2025-12-24T09:46:29.715349+00:00", "meta": {"OBJECT_NAME": "TRANSPORTER-15CX", "OBJECT_ID": "2025-276CX", "EPOCH": "2025-12-24T03:13:50.465568", "MEAN_MOTION": 15.18234635, "ECCENTRICITY": 0.0001805, "INCLINATION": 97.4377, "RA_OF_ASC_NODE": 69.7181, "ARG_OF_PERICENTER": 137.2523, "MEAN_ANOMALY": 222.8851, "EPHEMERIS_TYPE": 0, "CLASSIFICATION_TYPE": "U", "NORAD_CAT_ID": 66759, "ELEMENT_SET_NO": 999, "REV_AT_EPOCH": 385, "BSTAR": 0.00075945, "MEAN_MOTION_DOT": 0.000155, "MEAN_MOTION_DDOT": 0}, "tle": {"line1": "1 66759U 25276CX  25358.13461187  .00015500  00000+0  75945-3 0  9992", "line2": "2 66759  97.4377  69.7181 0001805 137.2523 222.8851 15.18234635  3853"}}, "geometry": {"type": "Point", "coordinates": [61.37694870170834, 48.88902965416683]}}, {"type": "Feature", "properties": {"norad_id": 66760, "name": "TRANSPORTER-15CY", "group": "last-30-days", "lat": 50.78196611422487, "lon": 60.77969284863839, "alt_km": 506.03692579382005, "timestamp": "2025-12-24T09:46:29.715358+00:00", "meta": {"OBJECT_NAME": "TRANSPORTER-15CY", "OBJECT_ID": "2025-276CY", "EPOCH": "2025-12-24T03:13:19.606944", "MEAN_MOTION": 15.18206542, "ECCENTRICITY": 0.0001729, "INCLINATION": 97.4395, "RA_OF_ASC_NODE": 69.7247, "ARG_OF_PERICENTER": 113.0894, "MEAN_ANOMALY": 247.0523, "EPHEMERIS_TYPE": 0, "CLASSIFICATION_TYPE": "U", "NORAD_CAT_ID": 66760, "ELEMENT_SET_NO": 999, "REV_AT_EPOCH": 385, "BSTAR": 0.00048093, "MEAN_MOTION_DOT": 9.775e-05, "MEAN_MOTION_DDOT": 0}, "tle": {"line1": "1 66760U 25276CY  25358.13425471  .00009775  00000+0  48093-3 0  9991", "line2": "2 66760  97.4395  69.7247 0001729 113.0894 247.0523 15.18206542  3857"}}, "geometry": {"type": "Point", "coordinates": [60.77969284863839, 50.78196611422487]}}, {"type": "Feature", "properties": {"norad_id": 66761, "name": "TRANSPORTER-15CZ", "group": "last-30-days", "lat": 65.69587756416426, "lon": 53.18053500590491, "alt_km": 503.291474470444, "timestamp": "2025-12-24T09:46:29.715371+00:00", "meta": {"OBJECT_NAME": "TRANSPORTER-15CZ", "OBJECT_ID": "2025-276CZ", "EPOCH": "2025-12-24T03:09:20.776608", "MEAN_MOTION": 15.1849932, "ECCENTRICITY": 0.0001729, "INCLINATION": 97.4396, "RA_OF_ASC_NODE": 69.7282, "ARG_OF_PERICENTER": 122.8082, "MEAN_ANOMALY": 237.3319, "EPHEMERIS_TYPE": 0, "CLASSIFICATION_TYPE": "U", "NORAD_CAT_ID": 66761, "ELEMENT_SET_NO": 999, "REV_AT_EPOCH": 385, "BSTAR": 0.00054536, "MEAN_MOTION_DOT": 0.0001119, "MEAN_MOTION_DDOT": 0}, "tle": {"line1": "1 66761U 25276CZ  25358.13149047  .00011190  00000+0  54536-3 0  9997", "line2": "2 66761  97.4396  69.7282 0001729 122.8082 237.3319 15.18499320  3858"}}, "geometry": {"type": "Point", "coordinates": [53.18053500590491, 65.69587756416426]}}, {"type": "Feature", "properties": {"norad_id": 66762, "name": "HYDROGNSS-1", "group": "last-30-days", "lat": -25.770775005203774, "lon": 73.58118517104704, "alt_km": 519.6498809956165, "timestamp": "2025-12-24T09:46:29.715383+00:00", "meta": {"OBJECT_NAME": "HYDROGNSS-1", "OBJECT_ID": "2025-276DA", "EPOCH": "2025-12-24T03:33:29.791872", "MEAN_MOTION": 15.17308644, "ECCENTRICITY": 0.0001006, "INCLINATION": 97.4406, "RA_OF_ASC_NODE": 69.7093, "ARG_OF_PERICENTER": 249.5865, "MEAN_ANOMALY": 110.526, "EPHEMERIS_TYPE": 0, "CLASSIFICATION_TYPE": "U", "NORAD_CAT_ID": 66762, "ELEMENT_SET_NO": 999, "REV_AT_EPOCH": 385, "BSTAR": 0.00029828, "MEAN_MOTION_DOT": 5.88e-05, "MEAN_MOTION_DDOT": 0}, "tle": {"line1": "1 66762U 25276DA  25358.14826148  .00005880  00000+0  29828-3 0  9998", "line2": "2 66762  97.4406  69.7093 0001006 249.5865 110.5260 15.17308644  3859"}}, "geometry": {"type": "Point", "coordinates": [73.58118517104704, -25.770775005203774]}}, {"type": "Feature", "properties": {"norad_id": 66763, "name": "HYDROGNSS-2", "group": "last-30-days", "lat": -14.151823344648227, "lon": 71.86157190010321, "alt_km": 518.6154213471518, "timestamp": "2025-12-24T09:46:29.715395+00:00", "meta": {"OBJECT_NAME": "HYDROGNSS-2", "OBJECT_ID": "2025-276DB", "EPOCH": "2025-12-22T10:21:31.448736", "MEAN_MOTION": 15.17420203, "ECCENTRICITY": 0.00013861, "INCLINATION": 97.4416, "RA_OF_ASC_NODE": 68.032, "ARG_OF_PERICENTER": 244.5475, "MEAN_ANOMALY": 115.5615, "EPHEMERIS_TYPE": 0, "CLASSIFICATION_TYPE": "U", "NORAD_CAT_ID": 66763, "ELEMENT_SET_NO": 999, "REV_AT_EPOCH": 359, "BSTAR": 0.00019983047, "MEAN_MOTION_DOT": 3.929e-05, "MEAN_MOTION_DDOT": 0}, "tle": {"line1": "1 66763U 25276DB  25356.43161399  .00003929  00000+0  19983-3 0  9992", "line2": "2 66763  97.4416  68.0320 0001386 244.5475 115.5615 15.17420203  3595"}}, "geometry": {"type": "Point", "coordinates": [71.86157190010321, -14.151823344648227]}}, {"type": "Feature", "properties": {"norad_id": 66764, "name": "TRANSPORTER-15DC", "group": "last-30-days", "lat": 10.99847036248667, "lon": 68.52203841314909, "alt_km": 515.8009081304899, "timestamp": "2025-12-24T09:46:29.715407+00:00", "meta": {"OBJECT_NAME": "TRANSPORTER-15DC", "OBJECT_ID": "2025-276DC", "EPOCH": "2025-12-24T03:23:48.427008", "MEAN_MOTION": 15.17701886, "ECCENTRICITY": 0.0002156, "INCLINATION": 97.4404, "RA_OF_ASC_NODE": 69.7163, "ARG_OF_PERICENTER": 189.134, "MEAN_ANOMALY": 170.9855, "EPHEMERIS_TYPE": 0, "CLASSIFICATION_TYPE": "U", "NORAD_CAT_ID": 66764, "ELEMENT_SET_NO": 999, "REV_AT_EPOCH": 385, "BSTAR": 0.00045007, "MEAN_MOTION_DOT": 9.011e-05, "MEAN_MOTION_DDOT": 0}, "tle": {"line1": "1 66764U 25276DC  25358.14153272  .00009011  00000+0  45007-3 0  9998", "line2": "2 66764  97.4404  69.7163 0002156 189.1340 170.9855 15.17701886  3856"}}, "geometry": {"type": "Point", "coordinates": [68.52203841314909, 10.99847036248667]}}, {"type": "Feature", "properties": {"norad_id": 66765, "name": "TRANSPORTER-15DD", "group": "last-30-days", "lat": 81.80292008608103, "lon": 4.864386651170555, "alt_km": 500.91735457062714, "timestamp": "2025-12-24T09:46:29.715419+00:00", "meta": {"OBJECT_NAME": "TRANSPORTER-15DD", "OBJECT_ID": "2025-276DD", "EPOCH": "2025-12-24T03:04:13.025856", "MEAN_MOTION": 15.18759286, "ECCENTRICITY": 0.0002004, "INCLINATION": 97.442, "RA_OF_ASC_NODE": 69.7404, "ARG_OF_PERICENTER": 116.7933, "MEAN_ANOMALY": 243.3506, "EPHEMERIS_TYPE": 0, "CLASSIFICATION_TYPE": "U", "NORAD_CAT_ID": 66765, "ELEMENT_SET_NO": 999, "REV_AT_EPOCH": 385, "BSTAR": 0.00063843, "MEAN_MOTION_DOT": 0.00013213, "MEAN_MOTION_DDOT": 0}, "tle": {"line1": "1 66765U 25276DD  25358.12792854  .00013213  00000+0  63843-3 0  9999", "line2": "2 66765  97.4420  69.7404 0002004 116.7933 243.3506 15.18759286  3855"}}, "geometry": {"type": "Point", "coordinates": [4.864386651170555, 81.80292008608103]}}, {"type": "Feature", "properties": {"norad_id": 66766, "name": "TRANSPORTER-15DE", "group": "last-30-days", "lat": 68.47701672981066, "lon": 50.64885793667121, "alt_km": 502.5956951720036, "timestamp": "2025-12-24T09:46:29.715430+00:00", "meta": {"OBJECT_NAME": "TRANSPORTER-15DE", "OBJECT_ID": "2025-276DE", "EPOCH": "2025-12-24T03:08:33.383616", "MEAN_MOTION": 15.18429587, "ECCENTRICITY": 0.0002025, "INCLINATION": 97.4361, "RA_OF_ASC_NODE": 69.7176, "ARG_OF_PERICENTER": 87.1876, "MEAN_ANOMALY": 272.959, "EPHEMERIS_TYPE": 0, "CLASSIFICATION_TYPE": "U", "NORAD_CAT_ID": 66766, "ELEMENT_SET_NO": 999, "REV_AT_EPOCH": 385, "BSTAR": 0.00051119, "MEAN_MOTION_DOT": 0.00010463, "MEAN_MOTION_DDOT": 0}, "tle": {"line1": "1 66766U 25276DE  25358.13094194  .00010463  00000+0  51119-3 0  9990", "line2": "2 66766  97.4361  69.7176 0002025  87.1876 272.9590 15.18429587  3855"}}, "geometry": {"type": "Point", "coordinates": [50.64885793667121, 68.47701672981066]}}]}